LEMUR-2-AMANDA-SVANTE   
1 48269U 21034B   26068.77637527  .00030872  00000+0  11134-2 0  9996
2 48269  97.5829 144.8625 0002703 205.4721 154.6385 15.28469003265849
STARLINK-35835          
1 66569U 25268N   26068.16239991  .00031901  00000+0  11639-2 0  9992
2 66569  43.0030 349.6479 0001326 299.2565  60.8154 15.27575703 17886
